GPS BIIR-2  (PRN 13)    
1 24876U 97035A   25001.71358446  .00000026  00000+0  00000+0 0  9993
2 24876  55.7405 119.3679 0086333  54.7895 305.9968  2.00562150201297
GPS BIIR-4  (PRN 20)    
1 26360U 00025A   25001.63666081 -.00000043  00000+0  00000+0 0  9994
2 26360  54.8186  40.8090 0039872 226.2268 168.9457  2.00564124180619
GPS BIIR-8  (PRN 16)    
1 27663U 03005A   25002.26948003  .00000067  00000+0  00000+0 0  9994
2 27663  55.0274 236.0748 0142598  48.9864  61.2866  2.00563533160651
GPS BIIR-9  (PRN 21)    
1 27704U 03010A   25001.60223685 -.00000064  00000+0  00000+0 0  9993
2 27704  55.0510 345.7761 0259566 332.8538 231.5458  2.00569786159440
GPS BIIR-11 (PRN 19)    
1 28190U 04009A   25001.64687132 -.00000029  00000+0  00000+0 0  9998
2 28190  55.2836 297.0985 0099087 155.8690  17.6328  2.00572090152288
GPS BIIR-13 (PRN 02)    
1 28474U 04045A   25001.56681022 -.00000064  00000+0  00000+0 0  9995
2 28474  55.3812 346.2642 0167140 298.6952 223.0686  2.00563228147768
GPS BIIRM-1 (PRN 17)    
1 28874U 05038A   25001.55908181 -.00000026  00000+0  00000+0 0  9997
2 28874  55.3276 294.5696 0136043 288.1307 208.6922  2.00571962141171
GPS BIIRM-2 (PRN 31)    
1 29486U 06042A   25002.25950912  .00000086  00000+0  00000+0 0  9995
2 29486  54.6808 172.3987 0105498  44.4501 138.0761  2.00570845133895
GPS BIIRM-3 (PRN 12)    
1 29601U 06052A   24366.93226207  .00000076  00000+0  00000+0 0  9994
2 29601  55.0664 235.1203 0087506  83.7874 277.3045  2.00552295132739
GPS BIIRM-4 (PRN 15)    
1 32260U 07047A   25001.73966886  .00000004  00000+0  00000+0 0  9994
2 32260  53.7217 102.0258 0159154  79.3489 282.4472  2.00555045126153
GPS BIIRM-5 (PRN 29)    
1 32384U 07062A   25001.30320730 -.00000027  00000+0  00000+0 0  9999
2 32384  55.4717 295.4727 0027828 155.6585  17.3299  2.00557713124849
GPS BIIRM-6 (PRN 07)    
1 32711U 08012A   25001.65053736  .00000084  00000+0  00000+0 0  9998
2 32711  54.4565 171.1379 0191115 240.7955 117.2675  2.00552802123092
GPS BIIRM-8 (PRN 05)    
1 35752U 09043A   25001.63196032 -.00000036  00000+0  00000+0 0  9994
2 35752  55.8349  48.4088 0053649  75.5776 282.3286  2.00557784112692
GPS BIIF-1  (PRN 25)    
1 36585U 10022A   25001.26032372  .00000079  00000+0  00000+0 0  9999
2 36585  54.3820 230.0055 0120836  62.9616 144.1822  2.00561530106928
GPS BIIF-3  (PRN 24)    
1 38833U 12053A   24366.83849244  .00000075  00000+0  00000+0 0  9999
2 38833  53.5280 165.3906 0162385  59.3206 302.2485  2.00561058 88760
GPS BIIF-4  (PRN 27)    
1 39166U 13023A   25001.69786993 -.00000020  00000+0  00000+0 0  9990
2 39166  54.9412 290.5663 0129716  45.5275 315.5623  2.00562139 85227
GPS BIIF-5  (PRN 30)    
1 39533U 14008A   25001.69554520  .00000082  00000+0  00000+0 0  9998
2 39533  53.6067 170.9833 0073912 220.7548 138.6770  2.00553402 79024
GPS BIIF-6  (PRN 06)    
1 39741U 14026A   25001.48003967 -.00000061  00000+0  00000+0 0  9998
2 39741  56.6869 352.1810 0035926 315.3390  44.3818  2.00554176 77872
GPS BIIF-7  (PRN 09)    
1 40105U 14045A   25001.06235569  .00000009  00000+0  00000+0 0  9995
2 40105  55.0266 109.7009 0029953 118.1788 242.1179  2.00549872 75403
GPS BIIF-8  (PRN 03)    
1 40294U 14068A   25001.44059896 -.00000032  00000+0  00000+0 0  9995
2 40294  56.5873  51.5209 0054430  64.5659 296.0703  2.00572376 74547
GPS BIIF-9  (PRN 26)    
1 40534U 15013A   25001.57533686  .00000079  00000+0  00000+0 0  9991
2 40534  53.2801 226.1784 0096491  33.3827 327.3095  2.00553471 71163
GPS BIIF-10 (PRN 08)    
1 40730U 15033A   25001.73627712 -.00000018  00000+0  00000+0 0  9997
2 40730  54.4221 288.9400 0101778  21.6733 338.7946  2.00556354 69332
GPS BIIF-11 (PRN 10)    
1 41019U 15062A   25001.79579363 -.00000033  00000+0  00000+0 0  9991
2 41019  56.5660  51.3624 0102630 227.1134 132.0907  2.00562904 67179
GPS BIIF-12 (PRN 32)    
1 41328U 16007A   24366.38450540  .00000005  00000+0  00000+0 0  9995
2 41328  55.2151 110.6148 0084455 239.7594 119.3926  2.00552135 65156
GPS BIII-1  (PRN 04)    
1 43873U 18109A   25001.76769492  .00000019  00000+0  00000+0 0  9990
2 43873  55.3830 113.1793 0032788 194.1028 338.0050  2.00563005 44412
GPS BIII-2  (PRN 18)    
1 44506U 19056A   25001.40172226 -.00000063  00000+0  00000+0 0  9990
2 44506  55.8211 352.2399 0048646 194.5728 337.0259  2.00558966 39406
GPS BIII-3  (PRN 23)    
1 45854U 20041A   25001.80698199 -.00000034  00000+0  00000+0 0  9997
2 45854  56.2857  49.6406 0050550 198.1727 205.9664  2.00569106 33388
GPS BIII-4  (PRN 14)    
1 46826U 20078A   25001.02185983  .00000077  00000+0  00000+0 0  9999
2 46826  54.1092 232.3730 0051974 198.2260 331.7673  2.00559866 30838
GPS BIII-5  (PRN 11)    
1 48859U 21054A   25001.77766671 -.00000063  00000+0  00000+0 0  9999
2 48859  55.3507 353.7844 0019292 230.2161 311.6043  2.00573211 26099
GPS BIII-6  (PRN 28)    
1 55268U 23009A   24365.97625410  .00000083  00000+0  00000+0 0  9993
2 55268  55.0899 169.4525 0002327  71.3979 288.3200  2.00549969 14547
GPS BIII-7  (PRN 01)    
1 62339U 24242A   25001.11144184 -.00000064  00000+0  00000+0 0  9998
2 62339  54.9998 355.7201 0004355 277.1610 267.0221  2.00554773   589
